{
  "type": "FeatureCollection",
  "features": [
    {
      "type": "Feature",
      "properties": {
        "norad_id": 67088,
        "name": "STARLINK-35882",
        "group": "last-30-days",
        "lat": 24.659924514807347,
        "lon": -124.21273927090505,
        "alt_km": 299.87089798800207,
        "timestamp": "2025-12-21T03:56:49.618950+00:00",
        "meta_object_name": "STARLINK-35882",
        "meta_object_id": "2025-298P",
        "meta_epoch": "2025-12-20T20:00:01.999008",
        "meta_mean_motion": 15.91947938,
        "meta_eccentricity": 0.0004005,
        "meta_inclination": 69.9982,
        "meta_ra_of_asc_node": 227.1203,
        "meta_arg_of_pericenter": 268.6532,
        "meta_mean_anomaly": 21.4454,
        "meta_ephemeris_type": 0,
        "meta_classification_type": "U",
        "meta_norad_cat_id": 67088,
        "meta_element_set_no": 999,
        "meta_rev_at_epoch": 228,
        "meta_bstar": -0.0051652,
        "meta_mean_motion_dot": -0.01701054,
        "meta_mean_motion_ddot": 0.0008059,
        "tle_line1": "1 67088U 25298P   25354.83335647 -.01701054  80590-3 -51652-2 0  9999",
        "tle_line2": "2 67088  69.9982 227.1203 0004005 268.6532  21.4454 15.91947938  2280"
      },
      "geometry": {
        "type": "Point",
        "coordinates": [
          -124.21273927090505,
          24.659924514807347
        ]
      }
    },
    {
      "type": "Feature",
      "properties": {
        "norad_id": 67089,
        "name": "STARLINK-35763",
        "group": "last-30-days",
        "lat": 26.418645398423703,
        "lon": -123.41593753730926,
        "alt_km": 299.44400111715004,
        "timestamp": "2025-12-21T03:56:49.618959+00:00",
        "meta_object_name": "STARLINK-35763",
        "meta_object_id": "2025-298Q",
        "meta_epoch": "2025-12-20T20:00:01.999008",
        "meta_mean_motion": 15.92017687,
        "meta_eccentricity": 0.0003997,
        "meta_inclination": 69.9981,
        "meta_ra_of_asc_node": 227.1179,
        "meta_arg_of_pericenter": 269.1414,
        "meta_mean_anomaly": 22.7742,
        "meta_ephemeris_type": 0,
        "meta_classification_type": "U",
        "meta_norad_cat_id": 67089,
        "meta_element_set_no": 999,
        "meta_rev_at_epoch": 228,
        "meta_bstar": -0.0051525,
        "meta_mean_motion_dot": -0.01702966,
        "meta_mean_motion_ddot": 0.00080815,
        "tle_line1": "1 67089U 25298Q   25354.83335647 -.01702966  80815-3 -51525-2 0  9992",
        "tle_line2": "2 67089  69.9981 227.1179 0003997 269.1414  22.7742 15.92017687  2280"
      },
      "geometry": {
        "type": "Point",
        "coordinates": [
          -123.41593753730926,
          26.418645398423703
        ]
      }
    },
    {
      "type": "Feature",
      "properties": {
        "norad_id": 67090,
        "name": "STARLINK-36060",
        "group": "last-30-days",
        "lat": 27.835803196260304,
        "lon": -122.75419115229568,
        "alt_km": 299.0925754923992,
        "timestamp": "2025-12-21T03:56:49.618967+00:00",
        "meta_object_name": "STARLINK-36060",
        "meta_object_id": "2025-298R",
        "meta_epoch": "2025-12-20T20:00:01.999008",
        "meta_mean_motion": 15.92091108,
        "meta_eccentricity": 0.0004011,
        "meta_inclination": 69.9978,
        "meta_ra_of_asc_node": 227.1161,
        "meta_arg_of_pericenter": 269.9744,
        "meta_mean_anomaly": 23.4001,
        "meta_ephemeris_type": 0,
        "meta_classification_type": "U",
        "meta_norad_cat_id": 67090,
        "meta_element_set_no": 999,
        "meta_rev_at_epoch": 222,
        "meta_bstar": -0.0052331,
        "meta_mean_motion_dot": -0.01735774,
        "meta_mean_motion_ddot": 0.00083791,
        "tle_line1": "1 67090U 25298R   25354.83335647 -.01735774  83791-3 -52331-2 0  9999",
        "tle_line2": "2 67090  69.9978 227.1161 0004011 269.9744  23.4001 15.92091108  2221"
      },
      "geometry": {
        "type": "Point",
        "coordinates": [
          -122.75419115229568,
          27.835803196260304
        ]
      }
    },
    {
      "type": "Feature",
      "properties": {
        "norad_id": 67091,
        "name": "STARLINK-36097",
        "group": "last-30-days",
        "lat": 29.550988641373102,
        "lon": -121.92783994794527,
        "alt_km": 298.812401179237,
        "timestamp": "2025-12-21T03:56:49.618977+00:00",
        "meta_object_name": "STARLINK-36097",
        "meta_object_id": "2025-298S",
        "meta_epoch": "2025-12-20T20:00:01.999008",
        "meta_mean_motion": 15.92151639,
        "meta_eccentricity": 0.0004038,
        "meta_inclination": 69.998,
        "meta_ra_of_asc_node": 227.1139,
        "meta_arg_of_pericenter": 267.1413,
        "meta_mean_anomaly": 28.0173,
        "meta_ephemeris_type": 0,
        "meta_classification_type": "U",
        "meta_norad_cat_id": 67091,
        "meta_element_set_no": 999,
        "meta_rev_at_epoch": 228,
        "meta_bstar": -0.0051677,
        "meta_mean_motion_dot": -0.0171965,
        "meta_mean_motion_ddot": 0.00082401,
        "tle_line1": "1 67091U 25298S   25354.83335647 -.01719650  82401-3 -51677-2 0  9994",
        "tle_line2": "2 67091  69.9980 227.1139 0004038 267.1413  28.0173 15.92151639  2285"
      },
      "geometry": {
        "type": "Point",
        "coordinates": [
          -121.92783994794527,
          29.550988641373102
        ]
      }
    },
    {
      "type": "Feature",
      "properties": {
        "norad_id": 67092,
        "name": "STARLINK-35792",
        "group": "last-30-days",
        "lat": 30.967536709601976,
        "lon": -121.22181811237239,
        "alt_km": 298.39098113267573,
        "timestamp": "2025-12-21T03:56:49.618986+00:00",
        "meta_object_name": "STARLINK-35792",
        "meta_object_id": "2025-298T",
        "meta_epoch": "2025-12-20T20:00:01.999008",
        "meta_mean_motion": 15.9221122,
        "meta_eccentricity": 0.0003977,
        "meta_inclination": 69.998,
        "meta_ra_of_asc_node": 227.1121,
        "meta_arg_of_pericenter": 268.7502,
        "meta_mean_anomaly": 27.8806,
        "meta_ephemeris_type": 0,
        "meta_classification_type": "U",
        "meta_norad_cat_id": 67092,
        "meta_element_set_no": 999,
        "meta_rev_at_epoch": 222,
        "meta_bstar": -0.0051651,
        "meta_mean_motion_dot": -0.01723987,
        "meta_mean_motion_ddot": 0.00082837,
        "tle_line1": "1 67092U 25298T   25354.83335647 -.01723987  82837-3 -51651-2 0  9998",
        "tle_line2": "2 67092  69.9980 227.1121 0003977 268.7502  27.8806 15.92211220  2221"
      },
      "geometry": {
        "type": "Point",
        "coordinates": [
          -121.22181811237239,
          30.967536709601976
        ]
      }
    },
    {
      "type": "Feature",
      "properties": {
        "norad_id": 67093,
        "name": "STARLINK-35784",
        "group": "last-30-days",
        "lat": 32.516280997360234,
        "lon": -120.42289714460252,
        "alt_km": 298.00670880614234,
        "timestamp": "2025-12-21T03:56:49.618995+00:00",
        "meta_object_name": "STARLINK-35784",
        "meta_object_id": "2025-298U",
        "meta_epoch": "2025-12-20T20:00:01.999008",
        "meta_mean_motion": 15.92280839,
        "meta_eccentricity": 0.0004025,
        "meta_inclination": 69.9977,
        "meta_ra_of_asc_node": 227.1101,
        "meta_arg_of_pericenter": 269.8935,
        "meta_mean_anomaly": 28.35,
        "meta_ephemeris_type": 0,
        "meta_classification_type": "U",
        "meta_norad_cat_id": 67093,
        "meta_element_set_no": 999,
        "meta_rev_at_epoch": 228,
        "meta_bstar": -0.0051942,
        "meta_mean_motion_dot": -0.0173978,
        "meta_mean_motion_ddot": 0.00084311,
        "tle_line1": "1 67093U 25298U   25354.83335647 -.01739780  84311-3 -51942-2 0  9999",
        "tle_line2": "2 67093  69.9977 227.1101 0004025 269.8935  28.3500 15.92280839  2288"
      },
      "geometry": {
        "type": "Point",
        "coordinates": [
          -120.42289714460252,
          32.516280997360234
        ]
      }
    },
    {
      "type": "Feature",
      "properties": {
        "norad_id": 67094,
        "name": "STARLINK-36202",
        "group": "last-30-days",
        "lat": 34.26801923784113,
        "lon": -119.48171348217306,
        "alt_km": 297.59026514818834,
        "timestamp": "2025-12-21T03:56:49.619005+00:00",
        "meta_object_name": "STARLINK-36202",
        "meta_object_id": "2025-298V",
        "meta_epoch": "2025-12-20T20:00:01.999008",
        "meta_mean_motion": 15.92360677,
        "meta_eccentricity": 0.0004048,
        "meta_inclination": 69.9976,
        "meta_ra_of_asc_node": 227.1081,
        "meta_arg_of_pericenter": 270.7143,
        "meta_mean_anomaly": 29.3625,
        "meta_ephemeris_type": 0,
        "meta_classification_type": "U",
        "meta_norad_cat_id": 67094,
        "meta_element_set_no": 999,
        "meta_rev_at_epoch": 228,
        "meta_bstar": -0.0052508,
        "meta_mean_motion_dot": -0.01765707,
        "meta_mean_motion_ddot": 0.00086732,
        "tle_line1": "1 67094U 25298V   25354.83335647 -.01765707  86732-3 -52508-2 0  9996",
        "tle_line2": "2 67094  69.9976 227.1081 0004048 270.7143  29.3625 15.92360677  2280"
      },
      "geometry": {
        "type": "Point",
        "coordinates": [
          -119.48171348217306,
          34.26801923784113
        ]
      }
    }
  ]
}